{"type": "FeatureCollection", "features": [ {"type": "Feature", "properties": {"norad_id": 34609, "name": "COSMOS 2251 DEB", "group": "cosmos-2251-debris", "lat": 66.96431255299414, "lon": -116.408888187699, "alt_km": 891.7548155078011, "timestamp": "2025-12-12T14:39:18.327328+00:00", "meta": {"OBJECT_NAME": "COSMOS 2251 DEB", "OBJECT_ID": "1993-036WE", "EPOCH": "2025-12-11T14:35:06.209664", "MEAN_MOTION": 14.21786633, "ECCENTRICITY": 0.01450049, "INCLINATION": 73.733, "RA_OF_ASC_NODE": 108.7909, "ARG_OF_PERICENTER": 328.464, "MEAN_ANOMALY": 45.5699, "EPHEMERIS_TYPE": 0, "CLASSIFICATION_TYPE": "U", "NORAD_CAT_ID": 34609, "ELEMENT_SET_NO": 999, "REV_AT_EPOCH": 86616, "BSTAR": 0.0012909722, "MEAN_MOTION_DOT": 3.134e-05, "MEAN_MOTION_DDOT": 0}, "tle": {"line1": "1 34609U 93036WE  25345.60771076  .00003134  00000+0  12910-2 0  9991", "line2": "2 34609  73.7330 108.7909 0145004 328.4640  45.5699 14.21786633866168"}}, "geometry": {"type": "Point", "coordinates": [-116.408888187699, 66.96431255299414]}}, {"type": "Feature", "properties": {"norad_id": 34610, "name": "COSMOS 2251 DEB", "group": "cosmos-2251-debris", "lat": -72.95772328344317, "lon": -166.6660677619855, "alt_km": 934.269062481776, "timestamp": "2025-12-12T14:39:18.327337+00:00", "meta": {"OBJECT_NAME": "COSMOS 2251 DEB", "OBJECT_ID": "1993-036WF", "EPOCH": "2025-12-12T04:48:44.443296", "MEAN_MOTION": 14.0705156, "ECCENTRICITY": 0.01802638, "INCLINATION": 74.0182, "RA_OF_ASC_NODE": 263.2648, "ARG_OF_PERICENTER": 33.9962, "MEAN_ANOMALY": 327.257, "EPHEMERIS_TYPE": 0, "CLASSIFICATION_TYPE": "U", "NORAD_CAT_ID": 34610, "ELEMENT_SET_NO": 999, "REV_AT_EPOCH": 85552, "BSTAR": 0.0029791885, "MEAN_MOTION_DOT": 5.751e-05, "MEAN_MOTION_DDOT": 0}, "tle": {"line1": "1 34610U 93036WF  25346.20051439  .00005751  00000+0  29792-2 0  9997", "line2": "2 34610  74.0182 263.2648 0180263  33.9962 327.2570 14.07051560855521"}}, "geometry": {"type": "Point", "coordinates": [-166.6660677619855, -72.95772328344317]}}, {"type": "Feature", "properties": {"norad_id": 34611, "name": "COSMOS 2251 DEB", "group": "cosmos-2251-debris", "lat": -53.20495398703921, "lon": 78.73987033020609, "alt_km": 684.3378427007292, "timestamp": "2025-12-12T14:39:18.327346+00:00", "meta": {"OBJECT_NAME": "COSMOS 2251 DEB", "OBJECT_ID": "1993-036WG", "EPOCH": "2025-12-12T03:46:13.527264", "MEAN_MOTION": 14.6949308, "ECCENTRICITY": 0.00226657, "INCLINATION": 74.0526, "RA_OF_ASC_NODE": 102.0932, "ARG_OF_PERICENTER": 143.9949, "MEAN_ANOMALY": 281.3367, "EPHEMERIS_TYPE": 0, "CLASSIFICATION_TYPE": "U", "NORAD_CAT_ID": 34611, "ELEMENT_SET_NO": 999, "REV_AT_EPOCH": 88382, "BSTAR": 0.0027204128, "MEAN_MOTION_DOT": 0.000162, "MEAN_MOTION_DDOT": 0}, "tle": {"line1": "1 34611U 93036WG  25346.15710101  .00016200  00000+0  27204-2 0  9997", "line2": "2 34611  74.0526 102.0932 0022665 143.9949 281.3367 14.69493080883821"}}, "geometry": {"type": "Point", "coordinates": [78.73987033020609, -53.20495398703921]}}, {"type": "Feature", "properties": {"norad_id": 34613, "name": "COSMOS 2251 DEB", "group": "cosmos-2251-debris", "lat": 46.80387334390159, "lon": -63.37395299365989, "alt_km": 760.4741095017398, "timestamp": "2025-12-12T14:39:18.327355+00:00", "meta": {"OBJECT_NAME": "COSMOS 2251 DEB", "OBJECT_ID": "1993-036WJ", "EPOCH": "2025-12-11T21:54:05.274720", "MEAN_MOTION": 14.26425303, "ECCENTRICITY": 0.0110163, "INCLINATION": 73.9634, "RA_OF_ASC_NODE": 280.0551, "ARG_OF_PERICENTER": 112.0795, "MEAN_ANOMALY": 315.1744, "EPHEMERIS_TYPE": 0, "CLASSIFICATION_TYPE": "U", "NORAD_CAT_ID": 34613, "ELEMENT_SET_NO": 999, "REV_AT_EPOCH": 86451, "BSTAR": 0.0018166, "MEAN_MOTION_DOT": 4.638e-05, "MEAN_MOTION_DDOT": 0}, "tle": {"line1": "1 34613U 93036WJ  25345.91256105  .00004638  00000+0  18166-2 0  9990", "line2": "2 34613  73.9634 280.0551 0110163 112.0795 315.1744 14.26425303864518"}}, "geometry": {"type": "Point", "coordinates": [-63.37395299365989, 46.80387334390159]}}, {"type": "Feature", "properties": {"norad_id": 34614, "name": "COSMOS 2251 DEB", "group": "cosmos-2251-debris", "lat": -30.05275970804354, "lon": -25.51567192323867, "alt_km": 698.9208945809896, "timestamp": "2025-12-12T14:39:18.327364+00:00", "meta": {"OBJECT_NAME": "COSMOS 2251 DEB", "OBJECT_ID": "1993-036WK", "EPOCH": "2025-12-11T23:41:34.354752", "MEAN_MOTION": 14.17468731, "ECCENTRICITY": 0.019729, "INCLINATION": 73.88, "RA_OF_ASC_NODE": 345.2379, "ARG_OF_PERICENTER": 339.2204, "MEAN_ANOMALY": 49.7663, "EPHEMERIS_TYPE": 0, "CLASSIFICATION_TYPE": "U", "NORAD_CAT_ID": 34614, "ELEMENT_SET_NO": 999, "REV_AT_EPOCH": 84756, "BSTAR": 0.0083262, "MEAN_MOTION_DOT": 0.00020474, "MEAN_MOTION_DDOT": 0}, "tle": {"line1": "1 34614U 93036WK  25345.98720318  .00020474  00000+0  83262-2 0  9995", "line2": "2 34614  73.8800 345.2379 0197290 339.2204  49.7663 14.17468731847567"}}, "geometry": {"type": "Point", "coordinates": [-25.51567192323867, -30.05275970804354]}}, {"type": "Feature", "properties": {"norad_id": 34615, "name": "COSMOS 2251 DEB", "group": "cosmos-2251-debris", "lat": -69.1120077006867, "lon": 163.07692061657337, "alt_km": 890.867402894356, "timestamp": "2025-12-12T14:39:18.327373+00:00", "meta": {"OBJECT_NAME": "COSMOS 2251 DEB", "OBJECT_ID": "1993-036WL", "EPOCH": "2025-12-11T15:13:30.717120", "MEAN_MOTION": 13.52202046, "ECCENTRICITY": 0.04013404, "INCLINATION": 74.005, "RA_OF_ASC_NODE": 295.914, "ARG_OF_PERICENTER": 203.3816, "MEAN_ANOMALY": 338.769, "EPHEMERIS_TYPE": 0, "CLASSIFICATION_TYPE": "U", "NORAD_CAT_ID": 34615, "ELEMENT_SET_NO": 999, "REV_AT_EPOCH": 82800, "BSTAR": 0.00021166372, "MEAN_MOTION_DOT": 2.1e-06, "MEAN_MOTION_DDOT": 0}, "tle": {"line1": "1 34615U 93036WL  25345.63438330  .00000210  00000+0  21166-3 0  9990", "line2": "2 34615  74.0050 295.9140 0401340 203.3816 338.7690 13.52202046828001"}}, "geometry": {"type": "Point", "coordinates": [163.07692061657337, -69.1120077006867]}}, {"type": "Feature", "properties": {"norad_id": 34619, "name": "COSMOS 2251 DEB", "group": "cosmos-2251-debris", "lat": 65.52949364080274, "lon": -18.762551356039825, "alt_km": 737.8874530875482, "timestamp": "2025-12-12T14:39:18.327382+00:00", "meta": {"OBJECT_NAME": "COSMOS 2251 DEB", "OBJECT_ID": "1993-036WQ", "EPOCH": "2025-12-11T07:00:35.437248", "MEAN_MOTION": 14.64640802, "ECCENTRICITY": 0.0094699, "INCLINATION": 74.0441, "RA_OF_ASC_NODE": 202.721, "ARG_OF_PERICENTER": 297.92, "MEAN_ANOMALY": 61.2403, "EPHEMERIS_TYPE": 0, "CLASSIFICATION_TYPE": "U", "NORAD_CAT_ID": 34619, "ELEMENT_SET_NO": 999, "REV_AT_EPOCH": 89277, "BSTAR": 0.00036676279, "MEAN_MOTION_DOT": 2.048e-05, "MEAN_MOTION_DDOT": 0}, "tle": {"line1": "1 34619U 93036WQ  25345.29207682  .00002048  00000+0  36676-3 0  9993", "line2": "2 34619  74.0441 202.7210 0094699 297.9200  61.2403 14.64640802892779"}}, "geometry": {"type": "Point", "coordinates": [-18.762551356039825, 65.52949364080274]}}, {"type": "Feature", "properties": {"norad_id": 34620, "name": "COSMOS 2251 DEB", "group": "cosmos-2251-debris", "lat": -5.2959027584177925, "lon": -141.74382617824364, "alt_km": 739.8488710315078, "timestamp": "2025-12-12T14:39:18.327391+00:00", "meta": {"OBJECT_NAME": "COSMOS 2251 DEB", "OBJECT_ID": "1993-036WR", "EPOCH": "2025-12-11T02:13:42.946752", "MEAN_MOTION": 14.49056132, "ECCENTRICITY": 0.00809081, "INCLINATION": 74.0509, "RA_OF_ASC_NODE": 222.6176, "ARG_OF_PERICENTER": 259.4219, "MEAN_ANOMALY": 99.7819, "EPHEMERIS_TYPE": 0, "CLASSIFICATION_TYPE": "U", "NORAD_CAT_ID": 34620, "ELEMENT_SET_NO": 999, "REV_AT_EPOCH": 86803, "BSTAR": 0.0032771066, "MEAN_MOTION_DOT": 0.00012967, "MEAN_MOTION_DDOT": 0}, "tle": {"line1": "1 34620U 93036WR  25345.09285818  .00012967  00000+0  32771-2 0  9992", "line2": "2 34620  74.0509 222.6176 0080908 259.4219  99.7819 14.49056132868038"}}, "geometry": {"type": "Point", "coordinates": [-141.74382617824364, -5.2959027584177925]}}, {"type": "Feature", "properties": {"norad_id": 34622, "name": "COSMOS 2251 DEB", "group": "cosmos-2251-debris", "lat": 2.888326403342869, "lon": -51.9289269263869, "alt_km": 753.3511580384175, "timestamp": "2025-12-12T14:39:18.327400+00:00", "meta": {"OBJECT_NAME": "COSMOS 2251 DEB", "OBJECT_ID": "1993-036WT", "EPOCH": "2025-12-11T23:44:50.481888", "MEAN_MOTION": 14.22040835, "ECCENTRICITY": 0.0104345, "INCLINATION": 74.0426, "RA_OF_ASC_NODE": 308.3579, "ARG_OF_PERICENTER": 30.9905, "MEAN_ANOMALY": 34.0072, "EPHEMERIS_TYPE": 0, "CLASSIFICATION_TYPE": "U", "NORAD_CAT_ID": 34622, "ELEMENT_SET_NO": 999, "REV_AT_EPOCH": 86449, "BSTAR": 0.0014307, "MEAN_MOTION_DOT": 3.32e-05, "MEAN_MOTION_DDOT": 0}, "tle": {"line1": "1 34622U 93036WT  25345.98947317  .00003320  00000+0  14307-2 0  9999", "line2": "2 34622  74.0426 308.3579 0104345  30.9905  34.0072 14.22040835864496"}}, "geometry": {"type": "Point", "coordinates": [-51.9289269263869, 2.888326403342869]}}, {"type": "Feature", "properties": {"norad_id": 34626, "name": "COSMOS 2251 DEB", "group": "cosmos-2251-debris", "lat": 14.002491377106585, "lon": 140.05545673993507, "alt_km": 661.9425029462236, "timestamp": "2025-12-12T14:39:18.327409+00:00", "meta": {"OBJECT_NAME": "COSMOS 2251 DEB", "OBJECT_ID": "1993-036WX", "EPOCH": "2025-12-12T01:08:44.731680", "MEAN_MOTION": 14.72182704, "ECCENTRICITY": 0.00265053, "INCLINATION": 74.0486, "RA_OF_ASC_NODE": 325.2394, "ARG_OF_PERICENTER": 53.6737, "MEAN_ANOMALY": 9.359, "EPHEMERIS_TYPE": 0, "CLASSIFICATION_TYPE": "U", "NORAD_CAT_ID": 34626, "ELEMENT_SET_NO": 999, "REV_AT_EPOCH": 89134, "BSTAR": 0.0015558336, "MEAN_MOTION_DOT": 9.844e-05, "MEAN_MOTION_DDOT": 0}, "tle": {"line1": "1 34626U 93036WX  25346.04773995  .00009844  00000+0  15558-2 0  9996", "line2": "2 34626  74.0486 325.2394 0026505  53.6737   9.3590 14.72182704891346"}}, "geometry": {"type": "Point", "coordinates": [140.05545673993507, 14.002491377106585]}}]}